STARLINK-36377          
1 67812U 26032R   26060.91872078  .00264700  00000+0  13351-2 0  9996
2 67812  97.2824 247.0753 0000813  83.6337 276.5024 15.80914605  3567
STARLINK-36732          
1 67813U 26032S   26060.91969229  .00201612  00000+0  10259-2 0  9999
2 67813  97.2832 247.0728 0001291  53.5859 306.5528 15.80884754  3569
STARLINK-36767          
1 67814U 26032T   26060.86163140  .00128960  00000+0  85133-3 0  9990
2 67814  97.2828 246.9988 0001684  81.7863 278.3593 15.75220869  3557
STARLINK-36797          
1 67815U 26032U   26060.66430724 -.00005790  00000+0 -29583-4 0  9999
2 67815  97.2821 246.8084 0000974 107.8022 252.3353 15.80761650  3522
STARLINK-36343          
1 67816U 26032V   26060.91608859  .00216381  00000+0  10987-2 0  9998
2 67816  97.2823 247.0781 0000876 108.3182 251.8182 15.80892942  3563
STARLINK-36756          
1 67817U 26032W   26060.91230715  .00177557  00000+0  90605-3 0  9998
2 67817  97.2821 247.0829 0001321 100.0986 260.0432 15.80886661  3552
STARLINK-36346          
1 67818U 26032X   26060.91062538  .00148400  00000+0  76023-3 0  9998
2 67818  97.2818 247.0854 0000859 122.2242 237.9110 15.80878108  3567
STARLINK-36788          
1 67819U 26032Y   26060.91845543  .00226598  00000+0  14751-2 0  9998
2 67819  97.2836 247.0743 0002168  55.4688 304.6781 15.75268642  3567
STARLINK-36353          
1 67820U 26032Z   26060.85126725 -.00982383  00000+0 -67488-2 0  9995
2 67820  97.2811 247.0116 0000825  89.0753 271.0608 15.77239179  3559
STARLINK-36644          
1 67821U 26033A   26060.99204254  .00373563  00000+0  16851-2 0  9996
2 67821  42.9973 318.7006 0001600 285.3195  74.7500 15.82219166  3406
STARLINK-36643          
1 67822U 26033B   26060.99129369  .00359079  00000+0  16238-2 0  9995
2 67822  42.9976 318.6946 0001913 250.2391 109.8275 15.82203891  3405
STARLINK-36646          
1 67823U 26033C   26060.60878035  .01522689  10577-2  55128-2 0  9999
2 67823  42.9985 320.9889 0026758 275.7126  84.0697 15.87341328  3348
