CCSDS_OMM_VERS = 2.0
CREATION_DATE  = 
ORIGINATOR     = 

OBJECT_NAME    = STARLINK-36377
OBJECT_ID      = 2026-032R
CENTER_NAME    = EARTH
REF_FRAME      = TEME
TIME_SYSTEM    = UTC
MEAN_ELEMENT_THEORY = SGP/SGP4

EPOCH          = 2026-03-01T22:02:57.475392
MEAN_MOTION    = 15.80914605
ECCENTRICITY   = .00008136
INCLINATION    = 97.2824
RA_OF_ASC_NODE = 247.0753
ARG_OF_PERICENTER = 83.6337
MEAN_ANOMALY   = 276.5024

EPHEMERIS_TYPE = 0
CLASSIFICATION_TYPE = U
NORAD_CAT_ID   = 67812
ELEMENT_SET_NO = 999
REV_AT_EPOCH   = 356
BSTAR          = .13351114E-2
MEAN_MOTION_DOT = .2647E-2
MEAN_MOTION_DDOT = 0

CCSDS_OMM_VERS = 2.0
CREATION_DATE  = 
ORIGINATOR     = 

OBJECT_NAME    = STARLINK-36732
OBJECT_ID      = 2026-032S
CENTER_NAME    = EARTH
REF_FRAME      = TEME
TIME_SYSTEM    = UTC
MEAN_ELEMENT_THEORY = SGP/SGP4

EPOCH          = 2026-03-01T22:04:21.413856
MEAN_MOTION    = 15.80884754
ECCENTRICITY   = .00012914
INCLINATION    = 97.2832
RA_OF_ASC_NODE = 247.0728
ARG_OF_PERICENTER = 53.5859
MEAN_ANOMALY   = 306.5528

EPHEMERIS_TYPE = 0
CLASSIFICATION_TYPE = U
NORAD_CAT_ID   = 67813
ELEMENT_SET_NO = 999
REV_AT_EPOCH   = 356
BSTAR          = .1025934E-2
MEAN_MOTION_DOT = .201612E-2
MEAN_MOTION_DDOT = 0

CCSDS_OMM_VERS = 2.0
CREATION_DATE  = 
ORIGINATOR     = 

OBJECT_NAME    = STARLINK-36767
OBJECT_ID      = 2026-032T
CENTER_NAME    = EARTH
REF_FRAME      = TEME
TIME_SYSTEM    = UTC
MEAN_ELEMENT_THEORY = SGP/SGP4

EPOCH          = 2026-03-01T20:40:44.952960
MEAN_MOTION    = 15.75220869
ECCENTRICITY   = .00016844
INCLINATION    = 97.2828
RA_OF_ASC_NODE = 246.9988
ARG_OF_PERICENTER = 81.7863
MEAN_ANOMALY   = 278.3593

EPHEMERIS_TYPE = 0
CLASSIFICATION_TYPE = U
NORAD_CAT_ID   = 67814
ELEMENT_SET_NO = 999
REV_AT_EPOCH   = 355
BSTAR          = .85132826E-3
MEAN_MOTION_DOT = .12896E-2
MEAN_MOTION_DDOT = 0

CCSDS_OMM_VERS = 2.0
CREATION_DATE  = 
ORIGINATOR     = 

OBJECT_NAME    = STARLINK-36797
OBJECT_ID      = 2026-032U
CENTER_NAME    = EARTH
REF_FRAME      = TEME
TIME_SYSTEM    = UTC
MEAN_ELEMENT_THEORY = SGP/SGP4

EPOCH          = 2026-03-01T15:56:36.145536
MEAN_MOTION    = 15.80761650
ECCENTRICITY   = .00009741
INCLINATION    = 97.2821
RA_OF_ASC_NODE = 246.8084
ARG_OF_PERICENTER = 107.8022
MEAN_ANOMALY   = 252.3353

EPHEMERIS_TYPE = 0
CLASSIFICATION_TYPE = U
NORAD_CAT_ID   = 67815
ELEMENT_SET_NO = 999
REV_AT_EPOCH   = 352
BSTAR          = -.2958306E-4
MEAN_MOTION_DOT = -.579E-4
MEAN_MOTION_DDOT = 0

CCSDS_OMM_VERS = 2.0
CREATION_DATE  = 
ORIGINATOR     = 

OBJECT_NAME    = STARLINK-36343
OBJECT_ID      = 2026-032V
CENTER_NAME    = EARTH
REF_FRAME      = TEME
TIME_SYSTEM    = UTC
MEAN_ELEMENT_THEORY = SGP/SGP4

EPOCH          = 2026-03-01T21:59:10.054176
MEAN_MOTION    = 15.80892942
ECCENTRICITY   = .00008766
INCLINATION    = 97.2823
RA_OF_ASC_NODE = 247.0781
ARG_OF_PERICENTER = 108.3182
MEAN_ANOMALY   = 251.8182

EPHEMERIS_TYPE = 0
CLASSIFICATION_TYPE = U
NORAD_CAT_ID   = 67816
ELEMENT_SET_NO = 999
REV_AT_EPOCH   = 356
BSTAR          = .10987421E-2
MEAN_MOTION_DOT = .216381E-2
MEAN_MOTION_DDOT = 0

CCSDS_OMM_VERS = 2.0
CREATION_DATE  = 
ORIGINATOR     = 

OBJECT_NAME    = STARLINK-36756
OBJECT_ID      = 2026-032W
CENTER_NAME    = EARTH
REF_FRAME      = TEME
TIME_SYSTEM    = UTC
MEAN_ELEMENT_THEORY = SGP/SGP4

EPOCH          = 2026-03-01T21:53:43.337760
MEAN_MOTION    = 15.80886661
ECCENTRICITY   = .00013215
INCLINATION    = 97.2821
RA_OF_ASC_NODE = 247.0829
ARG_OF_PERICENTER = 100.0986
MEAN_ANOMALY   = 260.0432

EPHEMERIS_TYPE = 0
CLASSIFICATION_TYPE = U
NORAD_CAT_ID   = 67817
ELEMENT_SET_NO = 999
REV_AT_EPOCH   = 355
BSTAR          = .90604679E-3
MEAN_MOTION_DOT = .177557E-2
MEAN_MOTION_DDOT = 0

CCSDS_OMM_VERS = 2.0
CREATION_DATE  = 
ORIGINATOR     = 

OBJECT_NAME    = STARLINK-36346
OBJECT_ID      = 2026-032X
CENTER_NAME    = EARTH
REF_FRAME      = TEME
TIME_SYSTEM    = UTC
MEAN_ELEMENT_THEORY = SGP/SGP4

EPOCH          = 2026-03-01T21:51:18.032832
MEAN_MOTION    = 15.80878108
ECCENTRICITY   = .00008595
INCLINATION    = 97.2818
RA_OF_ASC_NODE = 247.0854
ARG_OF_PERICENTER = 122.2242
MEAN_ANOMALY   = 237.9110

EPHEMERIS_TYPE = 0
CLASSIFICATION_TYPE = U
NORAD_CAT_ID   = 67818
ELEMENT_SET_NO = 999
REV_AT_EPOCH   = 356
BSTAR          = .76023283E-3
MEAN_MOTION_DOT = .1484E-2
MEAN_MOTION_DDOT = 0

CCSDS_OMM_VERS = 2.0
CREATION_DATE  = 
ORIGINATOR     = 

OBJECT_NAME    = STARLINK-36788
OBJECT_ID      = 2026-032Y
CENTER_NAME    = EARTH
REF_FRAME      = TEME
TIME_SYSTEM    = UTC
MEAN_ELEMENT_THEORY = SGP/SGP4

EPOCH          = 2026-03-01T22:02:34.549152
MEAN_MOTION    = 15.75268642
ECCENTRICITY   = .00021687
INCLINATION    = 97.2836
RA_OF_ASC_NODE = 247.0743
ARG_OF_PERICENTER = 55.4688
MEAN_ANOMALY   = 304.6781

EPHEMERIS_TYPE = 0
CLASSIFICATION_TYPE = U
NORAD_CAT_ID   = 67819
ELEMENT_SET_NO = 999
REV_AT_EPOCH   = 356
BSTAR          = .1475065E-2
MEAN_MOTION_DOT = .226598E-2
MEAN_MOTION_DDOT = 0

CCSDS_OMM_VERS = 2.0
CREATION_DATE  = 
ORIGINATOR     = 

OBJECT_NAME    = STARLINK-36353
OBJECT_ID      = 2026-032Z
CENTER_NAME    = EARTH
REF_FRAME      = TEME
TIME_SYSTEM    = UTC
MEAN_ELEMENT_THEORY = SGP/SGP4

EPOCH          = 2026-03-01T20:25:49.490400
MEAN_MOTION    = 15.77239179
ECCENTRICITY   = .00008253
INCLINATION    = 97.2811
RA_OF_ASC_NODE = 247.0116
ARG_OF_PERICENTER = 89.0753
MEAN_ANOMALY   = 271.0608

EPHEMERIS_TYPE = 0
CLASSIFICATION_TYPE = U
NORAD_CAT_ID   = 67820
ELEMENT_SET_NO = 999
REV_AT_EPOCH   = 355
BSTAR          = -.6748773E-2
MEAN_MOTION_DOT = -.982383E-2
MEAN_MOTION_DDOT = 0

CCSDS_OMM_VERS = 2.0
CREATION_DATE  = 
ORIGINATOR     = 

OBJECT_NAME    = STARLINK-36644
OBJECT_ID      = 2026-033A
CENTER_NAME    = EARTH
REF_FRAME      = TEME
TIME_SYSTEM    = UTC
MEAN_ELEMENT_THEORY = SGP/SGP4

EPOCH          = 2026-03-01T23:48:32.475456
MEAN_MOTION    = 15.82219166
ECCENTRICITY   = .00016009
INCLINATION    = 42.9973
RA_OF_ASC_NODE = 318.7006
ARG_OF_PERICENTER = 285.3195
MEAN_ANOMALY   = 74.7500

EPHEMERIS_TYPE = 0
CLASSIFICATION_TYPE = U
NORAD_CAT_ID   = 67821
ELEMENT_SET_NO = 999
REV_AT_EPOCH   = 340
BSTAR          = .16850894E-2
MEAN_MOTION_DOT = .373563E-2
MEAN_MOTION_DDOT = 0

CCSDS_OMM_VERS = 2.0
CREATION_DATE  = 
ORIGINATOR     = 

OBJECT_NAME    = STARLINK-36643
OBJECT_ID      = 2026-033B
CENTER_NAME    = EARTH
REF_FRAME      = TEME
TIME_SYSTEM    = UTC
MEAN_ELEMENT_THEORY = SGP/SGP4

EPOCH          = 2026-03-01T23:47:27.774816
MEAN_MOTION    = 15.82203891
ECCENTRICITY   = .00019138
INCLINATION    = 42.9976
RA_OF_ASC_NODE = 318.6946
ARG_OF_PERICENTER = 250.2391
MEAN_ANOMALY   = 109.8275

EPHEMERIS_TYPE = 0
CLASSIFICATION_TYPE = U
NORAD_CAT_ID   = 67822
ELEMENT_SET_NO = 999
REV_AT_EPOCH   = 340
BSTAR          = .16237558E-2
MEAN_MOTION_DOT = .359079E-2
MEAN_MOTION_DDOT = 0

CCSDS_OMM_VERS = 2.0
CREATION_DATE  = 
ORIGINATOR     = 

OBJECT_NAME    = STARLINK-36646
OBJECT_ID      = 2026-033C
CENTER_NAME    = EARTH
REF_FRAME      = TEME
TIME_SYSTEM    = UTC
MEAN_ELEMENT_THEORY = SGP/SGP4

EPOCH          = 2026-03-01T14:36:38.622240
MEAN_MOTION    = 15.87341328
ECCENTRICITY   = .00267583
INCLINATION    = 42.9985
RA_OF_ASC_NODE = 320.9889
ARG_OF_PERICENTER = 275.7126
MEAN_ANOMALY   = 84.0697

EPHEMERIS_TYPE = 0
CLASSIFICATION_TYPE = U
NORAD_CAT_ID   = 67823
ELEMENT_SET_NO = 999
REV_AT_EPOCH   = 334
BSTAR          = .55128188E-2
MEAN_MOTION_DOT = .1522689E-1
MEAN_MOTION_DDOT = .10576944E-2

